GLOBALSTAR M068         
1 32266U 07048D   25288.28842686 -.00000051  00000+0  29366-3 0  9992
2 32266  51.9886 296.1468 0001319  48.0689 325.3538 12.62830880832733
GLOBALSTAR M079         
1 37188U 10054A   25288.95011343 -.00000103  00000+0  39348-5 0  9994
2 37188  52.0015 132.1647 0000891 104.7725  36.3175 12.62267840691706
GLOBALSTAR M074         
1 37189U 10054B   25288.97785435 -.00000089  00000+0  84717-4 0  9999
2 37189  51.9994 131.3842 0000808  82.6010  64.1570 12.62272547692314
GLOBALSTAR M076         
1 37190U 10054C   25288.81652152 -.00000075  00000+0  15950-3 0  9990
2 37190  52.0006 132.0585 0000621  96.5533 275.9390 12.62266490692010
GLOBALSTAR M077         
1 37191U 10054D   25288.84412211 -.00000078  00000+0  14217-3 0  9992
2 37191  52.0057  91.1631 0001998  37.2148 110.1544 12.36452535692363
GLOBALSTAR M075         
1 37192U 10054E   25288.98801817 -.00000090  00000+0  75551-4 0  9995
2 37192  51.9932 173.7257 0000816  74.2542 298.9545 12.62268862691106
GLOBALSTAR M073         
1 37193U 10054F   25288.94418277 -.00000087  00000+0  92024-4 0  9996
2 37193  52.0048  87.7683 0000811 111.1377  61.8687 12.62263615693080
GLOBALSTAR M083         
1 37739U 11033A   25288.79829416 -.00000088  00000+0  87784-4 0  9992
2 37739  51.9878  36.7758 0000767 117.0259  54.3715 12.62276859662085
GLOBALSTAR M088         
1 37740U 11033B   25288.36115031 -.00000072  00000+0  17539-3 0  9991
2 37740  52.0218 303.9466 0000437  75.8818  26.6233 12.62268845657579
GLOBALSTAR M091         
1 37741U 11033C   25288.90978851 -.00000081  00000+0  12802-3 0  9997
2 37741  51.9988 265.6009 0000591  79.3586 298.1710 12.62260583658434
GLOBALSTAR M085         
1 37742U 11033D   25288.82126012 -.00000094  00000+0  55042-4 0  9991
2 37742  52.0119 216.9492 0000794  81.2683 313.6547 12.62265645658933
GLOBALSTAR M081         
1 37743U 11033E   25288.84245852 -.00000104  00000+0 -16771-5 0  9998
2 37743  51.9952 219.5991 0000552  80.5511 290.3950 12.62269182659080
GLOBALSTAR M089         
1 37744U 11033F   25288.96156896 -.00000094  00000+0  51810-4 0  9990
2 37744  51.9918 173.4423 0000667  58.2354 314.9405 12.62267924659940
GLOBALSTAR M084         
1 38040U 11080A   25288.57888708 -.00000098  00000+0  30853-4 0  9991
2 38040  52.0029  41.9554 0000334 101.0965 272.0260 12.62269411637879
GLOBALSTAR M080         
1 38041U 11080B   25288.82335277 -.00000101  00000+0  17246-4 0  9994
2 38041  52.0076  42.8453 0001126  94.8238  78.9677 12.62269617638023
GLOBALSTAR M082         
1 38042U 11080C   25288.67838749 -.00000075  00000+0  16262-3 0  9996
2 38042  52.0104 358.7632 0000835 103.0056  62.3701 12.62263796638714
GLOBALSTAR M092         
1 38043U 11080D   25288.69805966 -.00000087  00000+0  95461-4 0  9996
2 38043  52.0067  89.0847 0000837  94.5514 279.3066 12.62267001637176
GLOBALSTAR M090         
1 38044U 11080E   25288.94369056 -.00000081  00000+0  12713-3 0  9992
2 38044  52.0148 351.8335 0000575 118.6479  52.0292 12.62262856638863
GLOBALSTAR M086         
1 38045U 11080F   25288.88989140 -.00000076  00000+0  15254-3 0  9995
2 38045  51.9924 352.3243 0000855 200.7802 331.4584 12.62278185638806
GLOBALSTAR M097         
1 39072U 13005A   25288.64197121 -.00000090  00000+0  76220-4 0  9996
2 39072  52.0041 267.7544 0000400  90.7993 269.2919 12.62266489586026
GLOBALSTAR M093         
1 39073U 13005B   25288.93269958 -.00000090  00000+0  78638-4 0  9992
2 39073  52.0096 260.1234 0000519 108.5267 251.5657 12.62265269586010
GLOBALSTAR M094         
1 39074U 13005C   25288.93238468 -.00000093  00000+0  60328-4 0  9995
2 39074  51.9945 174.4837 0000806  91.6237 268.4722 12.62264354587628
GLOBALSTAR M096         
1 39075U 13005D   25288.86640247 -.00000098  00000+0  31154-4 0  9990
2 39075  52.0066 223.2922 0000704  85.6419 274.4528 12.62267602586534
GLOBALSTAR M078         
1 39076U 13005E   25288.76127886 -.00000069  00000+0  19224-3 0  9990
2 39076  51.9876 307.9635 0001269  86.8201 273.2810 12.62261249585140
GLOBALSTAR M095         
1 39077U 13005F   25288.31217648 -.00000074  00000+0  16505-3 0  9993
2 39077  52.0083 306.5860 0000798 108.8279 251.2674 12.62260815584943
GLOBALSTAR M087         
1 52888U 22064A   25288.87968212 -.00000082  00000+0  12268-3 0  9995
2 52888  51.9984  86.2323 0001013 107.0435 253.0543 12.62289406160287
